[{"OBJECT_NAME":"239ALFEROV (RS61S)","OBJECT_ID":"2025-155F","EPOCH":"2026-03-09T21:46:33.382848","MEAN_MOTION":15.29933217,"ECCENTRICITY":0.00084878,"INCLINATION":97.4469,"RA_OF_ASC_NODE":37.6373,"ARG_OF_PERICENTER":151.5904,"MEAN_ANOMALY":208.58,"EPHEMERIS_TYPE":0,"CLASSIFICATION_TYPE":"U","NORAD_CAT_ID":64881,"ELEMENT_SET_NO":999,"REV_AT_EPOCH":6561,"BSTAR":0.00067233359,"MEAN_MOTION_DOT":0.00019457,"MEAN_MOTION_DDOT":0},{"OBJECT_NAME":"STARLINK-35863","OBJECT_ID":"2025-303H","EPOCH":"2026-03-09T01:07:00.537600","MEAN_MOTION":15.2758932,"ECCENTRICITY":0.00015011,"INCLINATION":42.9985,"RA_OF_ASC_NODE":314.6176,"ARG_OF_PERICENTER":262.5934,"MEAN_ANOMALY":97.4747,"EPHEMERIS_TYPE":0,"CLASSIFICATION_TYPE":"U","NORAD_CAT_ID":67170,"ELEMENT_SET_NO":999,"REV_AT_EPOCH":1263,"BSTAR":0.0018938385,"MEAN_MOTION_DOT":0.00052237,"MEAN_MOTION_DDOT":0}]
